ONEWEB-0385             
1 49311U 21090AJ  23323.46624785  .00000062  00000+0  11963-3 0  9995
2 49311  87.9179 101.7141 0001905  90.8922 269.2430 13.20775094106945
ONEWEB-0386             
1 49312U 21090AK  23322.42250975  .00000070  00000+0  13945-3 0  9998
2 49312  87.9168 101.9303 0001764  88.1358 271.9978 13.20771109105503
ONEWEB-0387             
1 49313U 21090AL  23323.46835533 -.00000371  00000+0 -94448-3 0  9996
2 49313  87.9178 101.7708 0001933 101.0523 259.0828 13.20770999106956
ONEWEB-0388             
1 49314U 21090AM  23322.99073254  .00000038  00000+0  63149-4 0  9991
2 49314  87.9170 132.3141 0001632  84.1116 276.0202 13.19726471103568
ONEWEB-0389             
1 50469U 21132A   23323.19701856  .00000113  00000+0  25821-3 0  9998
2 50469  87.9241 192.9088 0002002  86.4774 273.6587 13.17649867 95457
ONEWEB-0390             
1 50470U 21132B   23323.12318464  .00000134  00000+0  31185-3 0  9995
2 50470  87.9240 192.9312 0001612  93.5160 266.6156 13.17648944 95440
ONEWEB-0391             
1 50471U 21132C   23323.35310018  .00000012  00000+0 -29740-5 0  9990
2 50471  87.9242 192.8559 0001817  80.8622 279.2715 13.17646719 95476
ONEWEB-0392             
1 50472U 21132D   23323.38264846 -.00000012  00000+0 -64041-4 0  9994
2 50472  87.9225 192.8810 0001879  85.4733 274.6613 13.17649770 95511
